$$SOE
2460147.500000000, A.D. 2023-Jul-22 00:00:00.0000, -6.422124884553204E+09, -7.487577299751813E+08, -1.300994770686727E+09,
2460154.500000000, A.D. 2023-Jul-29 00:00:00.0000, -6.421848575224343E+09, -7.514475983657942E+08, -1.301530271070450E+09,
2460161.500000000, A.D. 2023-Aug-05 00:00:00.0000, -6.421571262417674E+09, -7.541373649832727E+08, -1.302065548718873E+09,
2460168.500000000, A.D. 2023-Aug-12 00:00:00.0000, -6.421292948548085E+09, -7.568270313442216E+08, -1.302600603405870E+09,
2460175.500000000, A.D. 2023-Aug-19 00:00:00.0000, -6.421013635725834E+09, -7.595165994539733E+08, -1.303135434935568E+09,
2460182.500000000, A.D. 2023-Aug-26 00:00:00.0000, -6.420733325755808E+09, -7.622060717165878E+08, -1.303670043136263E+09,
2460189.500000000, A.D. 2023-Sep-02 00:00:00.0000, -6.420452020159776E+09, -7.648954509161713E+08, -1.304204427859004E+09,
2460196.500000000, A.D. 2023-Sep-09 00:00:00.0000, -6.420169720185012E+09, -7.675847403107278E+08, -1.304738588987536E+09,
2460203.500000000, A.D. 2023-Sep-16 00:00:00.0000, -6.419886426630882E+09, -7.702739438965464E+08, -1.305272526479730E+09,
2460210.500000000, A.D. 2023-Sep-23 00:00:00.0000, -6.419602139076953E+09, -7.729630665563469E+08, -1.305806240455200E+09,
2460217.500000000, A.D. 2023-Sep-30 00:00:00.0000, -6.419316854852218E+09, -7.756521129004607E+08, -1.306339731200545E+09,
2460224.500000000, A.D. 2023-Oct-07 00:00:00.0000, -6.419030570099166E+09, -7.783410853438716E+08, -1.306872998920562E+09,
2460231.500000000, A.D. 2023-Oct-14 00:00:00.0000, -6.418743281892800E+09, -7.810299847322859E+08, -1.307406043601399E+09,
2460238.500000000, A.D. 2023-Oct-21 00:00:00.0000, -6.418454988185989E+09, -7.837188119145101E+08, -1.307938865150632E+09,
2460245.500000000, A.D. 2023-Oct-28 00:00:00.0000, -6.418165687005527E+09, -7.864075680010165E+08, -1.308471463498667E+09,
2460252.500000000, A.D. 2023-Nov-04 00:00:00.0000, -6.417875376148924E+09, -7.890962540790833E+08, -1.309003838609533E+09,
2460259.500000000, A.D. 2023-Nov-11 00:00:00.0000, -6.417584053204356E+09, -7.917848709843912E+08, -1.309535990466106E+09,
2460266.500000000, A.D. 2023-Nov-18 00:00:00.0000, -6.417291715674294E+09, -7.944734191933810E+08, -1.310067919054898E+09,
2460273.500000000, A.D. 2023-Nov-25 00:00:00.0000, -6.416998361129951E+09, -7.971618988138124E+08, -1.310599624355023E+09,
2460280.500000000, A.D. 2023-Dec-02 00:00:00.0000, -6.416703987368405E+09, -7.998503096847210E+08, -1.311131106334664E+09,
2460287.500000000, A.D. 2023-Dec-09 00:00:00.0000, -6.416408592494552E+09, -8.025386516446840E+08, -1.311662364966882E+09,
2460294.500000000, A.D. 2023-Dec-16 00:00:00.0000, -6.416112174640314E+09, -8.052269249558311E+08, -1.312193400290070E+09,
2460301.500000000, A.D. 2023-Dec-23 00:00:00.0000, -6.415814730972718E+09, -8.079151301961528E+08, -1.312724212488878E+09,
2460308.500000000, A.D. 2023-Dec-30 00:00:00.0000, -6.415516257330979E+09, -8.106032665708541E+08, -1.313254801787056E+09,
2460315.500000000, A.D. 2024-Jan-06 00:00:00.0000, -6.415216750265137E+09, -8.132913310034678E+08, -1.313785168182724E+09,
2460322.500000000, A.D. 2024-Jan-13 00:00:00.0000, -6.414916208303394E+09, -8.159793198136343E+08, -1.314315311464975E+09,
2460329.500000000, A.D. 2024-Jan-20 00:00:00.0000, -6.414614631224706E+09, -8.186672298969660E+08, -1.314845231372216E+09,
2460336.500000000, A.D. 2024-Jan-27 00:00:00.0000, -6.414312019365264E+09, -8.213550587548002E+08, -1.315374927653111E+09,
2460343.500000000, A.D. 2024-Feb-03 00:00:00.0000, -6.414008373387329E+09, -8.240428043224576E+08, -1.315904400068583E+09,
2460350.500000000, A.D. 2024-Feb-10 00:00:00.0000, -6.413703694232973E+09, -8.267304648871232E+08, -1.316433648384351E+09,
2460357.500000000, A.D. 2024-Feb-17 00:00:00.0000, -6.413397983124104E+09, -8.294180390874274E+08, -1.316962672366210E+09,
2460364.500000000, A.D. 2024-Feb-24 00:00:00.0000, -6.413091241572760E+09, -8.321055259799316E+08, -1.317491471780329E+09,
2460371.500000000, A.D. 2024-Mar-02 00:00:00.0000, -6.412783471372413E+09, -8.347929252050467E+08, -1.318020046403992E+09,
2460378.500000000, A.D. 2024-Mar-09 00:00:00.0000, -6.412474674431378E+09, -8.374802373152285E+08, -1.318548396064753E+09,
2460385.500000000, A.D. 2024-Mar-16 00:00:00.0000, -6.412164852053104E+09, -8.401674640682005E+08, -1.319076520728182E+09,
2460392.500000000, A.D. 2024-Mar-23 00:00:00.0000, -6.411854003766875E+09, -8.428546075761452E+08, -1.319604420534118E+09,
2460399.500000000, A.D. 2024-Mar-30 00:00:00.0000, -6.411542127950084E+09, -8.455416683376660E+08, -1.320132095578062E+09,
2460406.500000000, A.D. 2024-Apr-06 00:00:00.0000, -6.411229223986046E+09, -8.482286455201308E+08, -1.320659545736422E+09,
2460413.500000000, A.D. 2024-Apr-13 00:00:00.0000, -6.410915292406217E+09, -8.509155386559663E+08, -1.321186770792961E+09,
2460420.500000000, A.D. 2024-Apr-20 00:00:00.0000, -6.410600333968963E+09, -8.536023480762608E+08, -1.321713770560368E+09,
2460427.500000000, A.D. 2024-Apr-27 00:00:00.0000, -6.410284349191902E+09, -8.562890746430392E+08, -1.322240544903641E+09,
2460434.500000000, A.D. 2024-May-04 00:00:00.0000, -6.409967338249918E+09, -8.589757194835291E+08, -1.322767093730776E+09,
2460441.500000000, A.D. 2024-May-11 00:00:00.0000, -6.409649301000456E+09, -8.616622838280236E+08, -1.323293416980819E+09,
2460448.500000000, A.D. 2024-May-18 00:00:00.0000, -6.409330237054185E+09, -8.643487689294615E+08, -1.323819514614927E+09,
2460455.500000000, A.D. 2024-May-25 00:00:00.0000, -6.409010145866249E+09, -8.670351760715239E+08, -1.324345386613078E+09,
2460462.500000000, A.D. 2024-Jun-01 00:00:00.0000, -6.408689026788288E+09, -8.697215067223487E+08, -1.324871032986412E+09,
2460469.500000000, A.D. 2024-Jun-08 00:00:00.0000, -6.408366878834871E+09, -8.724077628565054E+08, -1.325396453829425E+09,
2460476.500000000, A.D. 2024-Jun-15 00:00:00.0000, -6.408043699764793E+09, -8.750939468998733E+08, -1.325921649403850E+09,
2460483.500000000, A.D. 2024-Jun-22 00:00:00.0000, -6.407719485482491E+09, -8.777800601220360E+08, -1.326446620065713E+09,
2460490.500000000, A.D. 2024-Jun-29 00:00:00.0000, -6.407394231881175E+09, -8.804661012968138E+08, -1.326971365989531E+09,
2460497.500000000, A.D. 2024-Jul-06 00:00:00.0000, -6.407067936482698E+09, -8.831520681018907E+08, -1.327495887133935E+09,
2460504.500000000, A.D. 2024-Jul-13 00:00:00.0000, -6.406740597924892E+09, -8.858379584333529E+08, -1.328020183396611E+09,
2460511.500000000, A.D. 2024-Jul-20 00:00:00.0000, -6.406412215282037E+09, -8.885237704863882E+08, -1.328544254682422E+09,
2460518.500000000, A.D. 2024-Jul-27 00:00:00.0000, -6.406082787874454E+09, -8.912095025615612E+08, -1.329068100902974E+09,
2460525.500000000, A.D. 2024-Aug-03 00:00:00.0000, -6.405752315294301E+09, -8.938951529715194E+08, -1.329591721963339E+09,
2460532.500000000, A.D. 2024-Aug-10 00:00:00.0000, -6.405420797481764E+09, -8.965807200523920E+08, -1.330115117751678E+09,
2460539.500000000, A.D. 2024-Aug-17 00:00:00.0000, -6.405088234804364E+09, -8.992662022578675E+08, -1.330638288134489E+09,
2460546.500000000, A.D. 2024-Aug-24 00:00:00.0000, -6.404754628111506E+09, -9.019515983578444E+08, -1.331161232962130E+09,
2460553.500000000, A.D. 2024-Aug-31 00:00:00.0000, -6.404419978648655E+09, -9.046369078027699E+08, -1.331683952100464E+09,
2460560.500000000, A.D. 2024-Sep-07 00:00:00.0000, -6.404084287465652E+09, -9.073221311269376E+08, -1.332206445512114E+09,
2460567.500000000, A.D. 2024-Sep-14 00:00:00.0000, -6.403747554233924E+09, -9.100072693945718E+08, -1.332728713313991E+09,
2460574.500000000, A.D. 2024-Sep-21 00:00:00.0000, -6.403409777501388E+09, -9.126923222758811E+08, -1.333250755591523E+09,
2460581.500000000, A.D. 2024-Sep-28 00:00:00.0000, -6.403070956872594E+09, -9.153772879805566E+08, -1.333772572188805E+09,
2460588.500000000, A.D. 2024-Oct-05 00:00:00.0000, -6.402731093444367E+09, -9.180621650469060E+08, -1.334294162811280E+09,
2460595.500000000, A.D. 2024-Oct-12 00:00:00.0000, -6.402390188857568E+09, -9.207469530063878E+08, -1.334815527164425E+09,
2460602.500000000, A.D. 2024-Oct-19 00:00:00.0000, -6.402048244715933E+09, -9.234316521942266E+08, -1.335336664990026E+09,
2460609.500000000, A.D. 2024-Oct-26 00:00:00.0000, -6.401705262404286E+09, -9.261162635073072E+08, -1.335857576062596E+09,
2460616.500000000, A.D. 2024-Nov-02 00:00:00.0000, -6.401361243048721E+09, -9.288007882575014E+08, -1.336378260181641E+09,
2460623.500000000, A.D. 2024-Nov-09 00:00:00.0000, -6.401016187521999E+09, -9.314852280994413E+08, -1.336898717166924E+09,
2460630.500000000, A.D. 2024-Nov-16 00:00:00.0000, -6.400670096468121E+09, -9.341695850321884E+08, -1.337418946859037E+09,
2460637.500000000, A.D. 2024-Nov-23 00:00:00.0000, -6.400322970298969E+09, -9.368538615244079E+08, -1.337938949133587E+09,
2460644.500000000, A.D. 2024-Nov-30 00:00:00.0000, -6.399974808954630E+09, -9.395380608054428E+08, -1.338458723951509E+09,
2460651.500000000, A.D. 2024-Dec-07 00:00:00.0000, -6.399625611007803E+09, -9.422221869014403E+08, -1.338978271449509E+09,
2460658.500000000, A.D. 2024-Dec-14 00:00:00.0000, -6.399275372800865E+09, -9.449062431923792E+08, -1.339497591907315E+09,
2460665.500000000, A.D. 2024-Dec-21 00:00:00.0000, -6.398924089934067E+09, -9.475902307306390E+08, -1.340016685480343E+09,
2460672.500000000, A.D. 2024-Dec-28 00:00:00.0000, -6.398571759132321E+09, -9.502741492883406E+08, -1.340535552120986E+09,
2460679.500000000, A.D. 2025-Jan-04 00:00:00.0000, -6.398218377893338E+09, -9.529579987572277E+08, -1.341054191732390E+09,
2460686.500000000, A.D. 2025-Jan-11 00:00:00.0000, -6.397863943738227E+09, -9.556417792411988E+08, -1.341572604251769E+09,
2460693.500000000, A.D. 2025-Jan-18 00:00:00.0000, -6.397508453981410E+09, -9.583254907602677E+08, -1.342090789654003E+09,
2460700.500000000, A.D. 2025-Jan-25 00:00:00.0000, -6.397151905776232E+09, -9.610091330404861E+08, -1.342608747936359E+09,
2460707.500000000, A.D. 2025-Feb-01 00:00:00.0000, -6.396794296246598E+09, -9.636927054199544E+08, -1.343126479103926E+09,
$$EOE